start=new Date('2023-01-01T00:00:00.000Z').valueOf();
sats=[{"TIME_SYSTEM":"UTC","SEMIMAJOR_AXIS":"6917.841","EPOCH":"2022-12-31T19:40:12.227808","MEAN_ANOMALY":"314.7190","CENTER_NAME":"EARTH","LAUNCH_DATE":"2022-03-03","PERIAPSIS":"538.193","TLE_LINE1":"1 51853U 22022B   22365.81958597  .00007240  00000-0  47233-3 0  9995","OBJECT_TYPE":"PAYLOAD","CLASSIFICATION_TYPE":"U","EPHEMERIS_TYPE":"0","GP_ID":"221892030","MEAN_ELEMENT_THEORY":"SGP4","FILE":"3728081","INCLINATION":"53.2153","BSTAR":"0.00047233000000","MEAN_MOTION":"15.08852981","OBJECT_ID":"2022-022B","RA_OF_ASC_NODE":"203.9450","ELEMENT_SET_NO":"999","COUNTRY_CODE":"US","ARG_OF_PERICENTER":"45.3980","MEAN_MOTION_DDOT":"0.0000000000000","RCS_SIZE":"LARGE","PERIOD":"95.437","APOAPSIS":"541.219","TLE_LINE2":"2 51853  53.2153 203.9450 0002187  45.3980 314.7190 15.08852981 47253","SITE":"AFETR","MEAN_MOTION_DOT":"0.00007240","REF_FRAME":"TEME","ECCENTRICITY":"0.00021870","REV_AT_EPOCH":"4725","DECAY_DATE":null,"OBJECT_NAME":"STARLINK-3539","NORAD_CAT_ID":"51853"},{"CLASSIFICATION_TYPE":"U","EPHEMERIS_TYPE":"0","GP_ID":"221891769","INCLINATION":"53.2150","FILE":"3728081","MEAN_ELEMENT_THEORY":"SGP4","TIME_SYSTEM":"UTC","MEAN_ANOMALY":"326.2484","SEMIMAJOR_AXIS":"6917.873","EPOCH":"2022-12-31T19:29:34.899072","LAUNCH_DATE":"2022-03-03","TLE_LINE1":"1 51854U 22022C   22365.81220948  .00001501  00000-0  11239-3 0  9999","PERIAPSIS":"537.920","CENTER_NAME":"EARTH","OBJECT_TYPE":"PAYLOAD","APOAPSIS":"541.556","TLE_LINE2":"2 51854  53.2150 203.9678 0002628  33.8676 326.2484 15.08842278 47316","SITE":"AFETR","MEAN_MOTION_DOT":"0.00001501","ECCENTRICITY":"0.00026280","REF_FRAME":"TEME","OBJECT_NAME":"STARLINK-3541","NORAD_CAT_ID":"51854","REV_AT_EPOCH":"4731","DECAY_DATE":null,"BSTAR":"0.00011239000000","RA_OF_ASC_NODE":"203.9678","ELEMENT_SET_NO":"999","MEAN_MOTION":"15.08842278","OBJECT_ID":"2022-022C","COUNTRY_CODE":"US","ARG_OF_PERICENTER":"33.8676","MEAN_MOTION_DDOT":"0.0000000000000","PERIOD":"95.437","RCS_SIZE":"LARGE"},{"APOAPSIS":"542.064","TLE_LINE2":"2 51855  53.2174 204.3128 0003403  28.6345 331.4833 15.08851692 47254","SITE":"AFETR","MEAN_MOTION_DOT":"0.00002654","ECCENTRICITY":"0.00034030","REF_FRAME":"TEME","NORAD_CAT_ID":"51855","OBJECT_NAME":"STARLINK-3545","DECAY_DATE":null,"REV_AT_EPOCH":"4725","BSTAR":"0.00018477000000","ELEMENT_SET_NO":"999","RA_OF_ASC_NODE":"204.3128","MEAN_MOTION":"15.08851692","OBJECT_ID":"2022-022D","MEAN_MOTION_DDOT":"0.0000000000000","COUNTRY_CODE":"US","ARG_OF_PERICENTER":"28.6345","PERIOD":"95.437","RCS_SIZE":"LARGE","CLASSIFICATION_TYPE":"U","EPHEMERIS_TYPE":"0","GP_ID":"221890529","INCLINATION":"53.2174","FILE":"3728081","MEAN_ELEMENT_THEORY":"SGP4","TIME_SYSTEM":"UTC","MEAN_ANOMALY":"331.4833","SEMIMAJOR_AXIS":"6917.845","EPOCH":"2022-12-31T17:43:37.044480","PERIAPSIS":"537.356","TLE_LINE1":"1 51855U 22022D   22365.73862320  .00002654  00000-0  18477-3 0  9998","LAUNCH_DATE":"2022-03-03","CENTER_NAME":"EARTH","OBJECT_TYPE":"PAYLOAD"},{"ARG_OF_PERICENTER":"79.7506","COUNTRY_CODE":"US","MEAN_MOTION_DDOT":"0.0000000000000","RCS_SIZE":"LARGE","PERIOD":"95.437","BSTAR":"-0.00002655600000","MEAN_MOTION":"15.08840977","OBJECT_ID":"2022-022E","RA_OF_ASC_NODE":"204.2912","ELEMENT_SET_NO":"999","REF_FRAME":"TEME","ECCENTRICITY":"0.00013710","REV_AT_EPOCH":"4733","DECAY_DATE":null,"OBJECT_NAME":"STARLINK-3568","NORAD_CAT_ID":"51856","TLE_LINE2":"2 51856  53.2142 204.2912 0001371  79.7506 280.3641 15.08840977 47330","APOAPSIS":"540.691","SITE":"AFETR","MEAN_MOTION_DOT":"-0.00000711","CENTER_NAME":"EARTH","LAUNCH_DATE":"2022-03-03","PERIAPSIS":"538.794","TLE_LINE1":"1 51856U 22022E   22365.74228727 -.00000711  00000-0 -26556-4 0  9999","OBJECT_TYPE":"PAYLOAD","TIME_SYSTEM":"UTC","SEMIMAJOR_AXIS":"6917.877","EPOCH":"2022-12-31T17:48:53.620128","MEAN_ANOMALY":"280.3641","GP_ID":"221890779","FILE":"3728081","MEAN_ELEMENT_THEORY":"SGP4","INCLINATION":"53.2142","CLASSIFICATION_TYPE":"U","EPHEMERIS_TYPE":"0"},{"COUNTRY_CODE":"US","ARG_OF_PERICENTER":"85.3042","MEAN_MOTION_DDOT":"0.0000000000000","RCS_SIZE":"LARGE","PERIOD":"95.437","BSTAR":"0.00013390000000","OBJECT_ID":"2022-022F","MEAN_MOTION":"15.08843209","RA_OF_ASC_NODE":"203.7432","ELEMENT_SET_NO":"999","REF_FRAME":"TEME","ECCENTRICITY":"0.00013930","REV_AT_EPOCH":"4732","DECAY_DATE":null,"OBJECT_NAME":"STARLINK-3571","NORAD_CAT_ID":"51857","TLE_LINE2":"2 51857  53.2152 203.7432 0001393  85.3042 274.8109 15.08843209 47322","APOAPSIS":"540.699","SITE":"AFETR","MEAN_MOTION_DOT":"0.00001844","CENTER_NAME":"EARTH","LAUNCH_DATE":"2022-03-03","TLE_LINE1":"1 51857U 22022F   22365.86373612  .00001844  00000-0  13390-3 0  9994","PERIAPSIS":"538.772","OBJECT_TYPE":"PAYLOAD","TIME_SYSTEM":"UTC","SEMIMAJOR_AXIS":"6917.871","EPOCH":"2022-12-31T20:43:46.800768","MEAN_ANOMALY":"274.8109","GP_ID":"221891531","MEAN_ELEMENT_THEORY":"SGP4","FILE":"3728081","INCLINATION":"53.2152","CLASSIFICATION_TYPE":"U","EPHEMERIS_TYPE":"0"},{"SEMIMAJOR_AXIS":"6917.865","EPOCH":"2022-12-31T17:38:18.249216","MEAN_ANOMALY":"297.5851","TIME_SYSTEM":"UTC","OBJECT_TYPE":"PAYLOAD","CENTER_NAME":"EARTH","LAUNCH_DATE":"2022-03-03","TLE_LINE1":"1 51858U 22022G   22365.73493344  .00000830  00000-0  70263-4 0  9993","PERIAPSIS":"538.561","EPHEMERIS_TYPE":"0","CLASSIFICATION_TYPE":"U","FILE":"3728081","MEAN_ELEMENT_THEORY":"SGP4","INCLINATION":"53.2146","GP_ID":"221892270","MEAN_MOTION":"15.08845095","OBJECT_ID":"2022-022G","RA_OF_ASC_NODE":"204.3250","ELEMENT_SET_NO":"999","BSTAR":"0.00007026300000","RCS_SIZE":"LARGE","PERIOD":"95.437","COUNTRY_CODE":"US","ARG_OF_PERICENTER":"62.5313","MEAN_MOTION_DDOT":"0.0000000000000","MEAN_MOTION_DOT":"0.00000830","APOAPSIS":"540.899","TLE_LINE2":"2 51858  53.2146 204.3250 0001690  62.5313 297.5851 15.08845095 47308","SITE":"AFETR","REV_AT_EPOCH":"4730","DECAY_DATE":null,"OBJECT_NAME":"STARLINK-3563","NORAD_CAT_ID":"51858","REF_FRAME":"TEME","ECCENTRICITY":"0.00016900"},{"LAUNCH_DATE":"2022-03-03","PERIAPSIS":"537.854","TLE_LINE1":"1 51859U 22022H   22365.88306311  .00001531  00000-0  11431-3 0  9997","CENTER_NAME":"EARTH","OBJECT_TYPE":"PAYLOAD","TIME_SYSTEM":"UTC","MEAN_ANOMALY":"313.7124","SEMIMAJOR_AXIS":"6917.871","EPOCH":"2022-12-31T21:11:36.652704","GP_ID":"221866404","INCLINATION":"53.2165","MEAN_ELEMENT_THEORY":"SGP4","FILE":"3728018","CLASSIFICATION_TYPE":"U","EPHEMERIS_TYPE":"0","COUNTRY_CODE":"US","ARG_OF_PERICENTER":"46.4093","MEAN_MOTION_DDOT":"0.0000000000000","PERIOD":"95.437","RCS_SIZE":"LARGE","BSTAR":"0.00011431000000","RA_OF_ASC_NODE":"193.6508","ELEMENT_SET_NO":"999","OBJECT_ID":"2022-022H","MEAN_MOTION":"15.08843217","ECCENTRICITY":"0.00027200","REF_FRAME":"TEME","OBJECT_NAME":"STARLINK-3560","NORAD_CAT_ID":"51859","REV_AT_EPOCH":"4746","DECAY_DATE":null,"TLE_LINE2":"2 51859  53.2165 193.6508 0002720  46.4093 313.7124 15.08843217 47462","APOAPSIS":"541.617","SITE":"AFETR","MEAN_MOTION_DOT":"0.00001531"},{"MEAN_MOTION_DOT":"0.00002459","TLE_LINE2":"2 51860  53.2163 194.5092 0003201  35.5524 324.5681 15.08838803 47398","APOAPSIS":"541.963","SITE":"AFETR","DECAY_DATE":null,"REV_AT_EPOCH":"4739","NORAD_CAT_ID":"51860","OBJECT_NAME":"STARLINK-3559","REF_FRAME":"TEME","ECCENTRICITY":"0.00032010","MEAN_MOTION":"15.08838803","OBJECT_ID":"2022-022J","ELEMENT_SET_NO":"999","RA_OF_ASC_NODE":"194.5092","BSTAR":"0.00017259000000","RCS_SIZE":"LARGE","PERIOD":"95.438","MEAN_MOTION_DDOT":"0.0000000000000","ARG_OF_PERICENTER":"35.5524","COUNTRY_CODE":"US","EPHEMERIS_TYPE":"0","CLASSIFICATION_TYPE":"U","MEAN_ELEMENT_THEORY":"SGP4","FILE":"3728081","INCLINATION":"53.2163","GP_ID":"221891280","SEMIMAJOR_AXIS":"6917.884","EPOCH":"2022-12-31T16:36:03.007872","MEAN_ANOMALY":"324.5681","TIME_SYSTEM":"UTC","OBJECT_TYPE":"PAYLOAD","CENTER_NAME":"EARTH","PERIAPSIS":"537.535","TLE_LINE1":"1 51860U 22022J   22365.69170148  .00002459  00000-0  17259-3 0  9999","LAUNCH_DATE":"2022-03-03"},{"INCLINATION":"53.2155","FILE":"3728081","MEAN_ELEMENT_THEORY":"SGP4","GP_ID":"221892031","EPHEMERIS_TYPE":"0","CLASSIFICATION_TYPE":"U","OBJECT_TYPE":"PAYLOAD","LAUNCH_DATE":"2022-03-03","PERIAPSIS":"537.739","TLE_LINE1":"1 51861U 22022K   22365.80947340 -.00000111  00000-0  11146-4 0  9993","CENTER_NAME":"EARTH","MEAN_ANOMALY":"317.5697","SEMIMAJOR_AXIS":"6917.913","EPOCH":"2022-12-31T19:25:38.501760","TIME_SYSTEM":"UTC","OBJECT_NAME":"STARLINK-3562","NORAD_CAT_ID":"51861","REV_AT_EPOCH":"4732","DECAY_DATE":null,"ECCENTRICITY":"0.00029480","REF_FRAME":"TEME","MEAN_MOTION_DOT":"-0.00000111","SITE":"AFETR","TLE_LINE2":"2 51861  53.2155 193.9754 0002948  42.5523 317.5697 15.08829281 47324","APOAPSIS":"541.818","PERIOD":"95.438","RCS_SIZE":"LARGE","ARG_OF_PERICENTER":"42.5523","COUNTRY_CODE":"US","MEAN_MOTION_DDOT":"0.0000000000000","RA_OF_ASC_NODE":"193.9754","ELEMENT_SET_NO":"999","MEAN_MOTION":"15.08829281","OBJECT_ID":"2022-022K","BSTAR":"0.00001114600000"},{"NORAD_CAT_ID":"51862","OBJECT_NAME":"STARLINK-3508","DECAY_DATE":null,"REV_AT_EPOCH":"4746","ECCENTRICITY":"0.00024680","REF_FRAME":"TEME","MEAN_MOTION_DOT":"-0.00000247","TLE_LINE2":"2 51862  53.2151 193.9443 0002468  51.3482 308.7731 15.08838990 47468","SITE":"AFETR","APOAPSIS":"541.456","PERIOD":"95.438","RCS_SIZE":"LARGE","MEAN_MOTION_DDOT":"0.0000000000000","ARG_OF_PERICENTER":"51.3482","COUNTRY_CODE":"US","ELEMENT_SET_NO":"999","RA_OF_ASC_NODE":"193.9443","MEAN_MOTION":"15.08838990","OBJECT_ID":"2022-022L","BSTAR":"0.00000261190000","INCLINATION":"53.2151","MEAN_ELEMENT_THEORY":"SGP4","FILE":"3728081","GP_ID":"221891770","EPHEMERIS_TYPE":"0","CLASSIFICATION_TYPE":"U","OBJECT_TYPE":"PAYLOAD","TLE_LINE1":"1 51862U 22022L   22365.82049352 -.00000247  00000-0  26119-5 0  9999","PERIAPSIS":"538.041","LAUNCH_DATE":"2022-03-03","CENTER_NAME":"EARTH","MEAN_ANOMALY":"308.7731","SEMIMAJOR_AXIS":"6917.883","EPOCH":"2022-12-31T19:41:30.640128","TIME_SYSTEM":"UTC"}];
